C/2015 ER61 (PANSTARRS),e,6.3372,235.1497,68.3210,497.6906,0.0000888,0.99790366,0.0000,05/10.4830/2017,2000,g 11.0,2.0
# From MPEC 2018-BF5
C/2015 E61-B (PANSTARRS),e,6.3388,235.1849,68.4102,1424,0.0000183,0.99926594,0.0000,05/10.4607/2017,2000,g 13.5,2.0
# From MPC109142
P/2015 F1 (PANSTARRS),e,2.8026,40.3908,187.4666,3.522740,0.1490676,0.27802043,322.3506,02/17.0/2021,2000,g 12.5,4.0
# From MPC117068
C/2015 H2 (PANSTARRS),h,09/14.2282/2016,33.6530,350.6769,288.1060,1.005665,4.978841,2000,7.5,4.0
# From MPC100280
P/2015 HG16 (PANSTARRS),e,18.7948,58.7908,47.4299,4.748409,0.0952537,0.35139855,231.5825,02/17.0/2021,2000,g 12.5,4.0
# From MPC 95213
P/2015 K5 (PANSTARRS),e,39.9448,134.1751,106.3405,6.720949,0.0565664,0.55343001,117.8599,02/17.0/2021,2000,g 13.5,4.0
# From MPC107684
P/2015 M2 (PANSTARRS),e,3.9727,86.5836,225.4699,7.229362,0.0507054,0.18104058,100.7645,02/17.0/2021,2000,g  8.5,4.0
# From MPC112390
C/2015 O1 (PANSTARRS),h,02/19.6466/2018,127.2252,299.8516,89.6293,1.001146,3.729097,2000,6.5,4.0
# From MPC 99819
P/2015 P4 (PANSTARRS),e,8.7177,104.7591,280.5687,6.049405,0.0662422,0.58469262,122.8823,02/17.0/2021,2000,g 14.0,4.0
# From MPC102952
P/2015 PD229 (Cameron-ISON),e,2.0263,342.6325,352.4518,7.182555,0.0512018,0.32817279,103.0236,02/17.0/2021,2000,g 11.5,2.0
# From MPC 99819
P/2015 Q1 (Scotti),e,22.3828,202.9072,199.8375,3.474132,0.1522070,0.47825015,304.9603,02/17.0/2021,2000,g 14.0,4.0
# From MPC 96867
P/2015 Q2 (Pimentel),e,146.4962,228.4211,244.4904,7.348012,0.0494822,0.75081073,98.5279,02/17.0/2021,2000,g 15.5,4.0
# From MPC 98562
P/2015 R1 (PANSTARRS),e,22.6794,48.4270,300.4314,5.880360,0.0691191,0.63413244,142.4431,02/17.0/2021,2000,g 14.0,4.0
# From MPC 95734
P/2015 R2 (PANSTARRS),e,15.4802,168.5995,149.7595,4.488295,0.1036530,0.45286925,215.2355,02/17.0/2021,2000,g 14.5,4.0
# From MPC117068
C/2015 T2 (PANSTARRS),e,124.5519,51.0247,30.6551,1943,0.0000115,0.99642984,0.0000,05/18.3781/2017,2000,g  8.0,4.0
# From MPC 96280
P/2015 T3 (PANSTARRS),e,13.0937,120.5019,178.6330,4.326181,0.1095335,0.50818108,359.9227,12/21.0/2014,2000,g 14.0,4.0
# From MPC102953
C/2015 T4 (PANSTARRS),e,87.9990,251.8312,270.0723,79.71131,0.0013849,0.97114828,0.0000,06/16.7942/2016,2000,g 11.0,4.0
# From MPC102953
P/2015 TO19 (Lemmon-PANSTARRS),e,6.4995,321.6519,89.1264,4.555964,0.1013523,0.35815354,183.4240,02/17.0/2021,2000,g 14.0,4.0
# From MPC110080
P/2015 TP200 (LINEAR),e,8.7773,6.9985,82.6070,7.275017,0.0502288,0.53498262,79.0560,02/17.0/2021,2000,g 11.0,4.0
# From MPC101097
C/2015 TQ209 (LINEAR),e,11.3036,223.3665,282.1485,575.5045,0.0000714,0.99753924,0.0000,08/25.2966/2016,2000,g 10.5,4.0
# From MPC115881
C/2015 V1 (PANSTARRS),e,139.2240,197.1830,179.6199,2308,0.0000089,0.99814972,0.0000,12/16.8270/2017,2000,g  6.5,4.0
# From MPC112390
C/2015 V2 (Johnson),h,06/11.8615/2017,49.8533,69.9028,165.0012,1.001864,1.644474,2000,5.0,4.0
# From MPC104791
C/2015 V4 (PANSTARRS),e,60.7870,179.9363,306.9701,18.47184,0.0124148,0.70440379,20.2832,02/17.0/2021,2000,g  8.5,4.0
# From MPC115881
C/2015 VL62 (Lemmon-Yeung-PANSTARRS),h,08/27.8736/2017,165.8170,95.1066,128.8042,1.001234,2.718310,2000,8.0,4.0
# From MPC102098
C/2015 WZ (PANSTARRS),e,134.6305,40.1935,66.7542,147.2417,0.0005516,0.99061923,0.0000,04/13.7256/2016,2000,g 15.0,4.0
# From MPC109142
C/2015 W1 (Gibbs),e,87.3621,114.3163,48.1663,2683,0.0000071,0.99916394,0.0000,05/13.6410/2016,2000,g 13.0,4.0
# From MPC101098
P/2015 W2 (Catalina),e,11.6070,294.2507,117.4960,7.295754,0.0500148,0.63392604,98.3422,02/17.0/2021,2000,g 13.0,4.0
# From MPC101098
P/2015 X1 (PANSTARRS),e,12.1515,161.7680,218.9309,3.632031,0.1423901,0.41902750,279.2394,02/17.0/2021,2000,g 16.0,4.0
# From MPEC 2020-AA5
C/2015 XY1 (Lemmon),h,04/27.5332/2018,148.8544,281.6198,196.2192,1.002569,7.923619,2000,5.5,4.0
# From MPC 97498
P/2015 X3 (PANSTARRS),e,24.3874,77.3121,306.6561,5.009243,0.0879116,0.43891973,177.5635,02/17.0/2021,2000,g 15.0,4.0
# From MPC119995
C/2015 X5 (PANSTARRS),h,12/29.2245/2017,124.3082,122.3461,27.6454,1.001654,6.796818,2000,7.5,4.0
# From MPC115881
P/2015 X6 (PANSTARRS),e,4.5647,106.9471,329.8643,2.753402,0.2157246,0.17260603,26.5092,02/17.0/2021,2000,g 16.0,4.0
# From MPC109143
C/2015 X7 (ATLAS),e,57.5596,139.9314,348.3715,8909,0.0000012,0.99958687,0.0000,07/29.1038/2016,2000,g  9.0,4.0
# From MPC109143
C/2015 Y1 (LINEAR),e,71.1632,135.8185,24.6542,240.8372,0.0002637,0.98955213,0.0000,05/13.3787/2016,2000,g 12.0,4.0
# From MPC119995
C/2016 A1 (PANSTARRS),h,11/22.4049/2017,121.2052,128.2081,10.2265,1.001130,5.322148,2000,6.0,4.0
# From MPC100282
P/2016 A2 (Christensen),e,26.4058,291.6155,141.4829,4.751512,0.0951604,0.27062340,197.1091,02/17.0/2021,2000,g 11.5,4.0
# From MPC115881
P/2016 A3 (PANSTARRS),e,8.5100,187.2528,341.0136,7.889704,0.0444747,0.38700876,61.8194,02/17.0/2021,2000,g 10.0,4.0
# From MPC102098
P/2016 A7 (PANSTARRS),e,16.6180,221.4901,352.6229,5.032257,0.0873092,0.56506468,158.8947,02/17.0/2021,2000,g 16.0,4.0
# From MPC106345
C/2016 A8 (LINEAR),e,148.2430,111.3429,130.4353,34.33079,0.0048998,0.94494080,8.0007,02/17.0/2021,2000,g 12.0,4.0
# From MPC107048
C/2016 B1 (NEOWISE),e,50.4479,232.0124,8.6863,439.1383,0.0001071,0.99267529,0.0000,12/04.5072/2016,2000,g  9.5,4.0
# From MPC109143
P/2016 BA14 (PANSTARRS),e,18.8935,180.5282,351.8902,3.025220,0.1873133,0.66521737,337.4616,02/17.0/2021,2000,g 21.0,4.0
# From MPC110494
C/2016 C1 (PANSTARRS),h,02/18.1453/2016,56.2367,181.8213,328.7154,1.001687,8.463487,2000,5.5,4.0
# From MPC101098
C/2016 C2 (NEOWISE),e,38.0345,24.4283,214.5827,65.95784,0.0018399,0.97620112,0.0000,04/19.0980/2016,2000,g 16.0,4.0
# From MPC110494
C/2016 E1 (PANSTARRS),h,06/04.4103/2017,131.8859,233.0845,47.4794,1.006303,8.178934,2000,6.5,4.0
# From MPC102098
P/2016 G1 (PANSTARRS),e,10.9677,204.0406,111.2184,2.583574,0.2373410,0.21121532,352.1236,02/17.0/2021,2000,g 14.0,4.0
# From MPEC 2017-D91
P/2016 J1-A (PANSTARRS),e,14.3262,199.8136,46.9298,3.173621,0.1743297,0.22806248,295.7628,02/17.0/2021,2000,g 16.5,4.0
# From MPEC 2017-A77
P/2016 J1-B (PANSTARRS),e,14.3289,199.8185,46.8210,3.173251,0.1743603,0.22791330,295.8894,02/17.0/2021,2000,g 17.0,4.0
# From MPC101099
C/2016 J2 (Denneau),e,130.3271,186.4336,318.6585,647.8370,0.0000598,0.99765566,0.0000,04/12.5627/2016,2000,g 17.0,4.0
# From MPC104792
C/2016 K1 (LINEAR),h,07/13.5466/2016,90.9426,325.6132,18.3189,1.000188,2.295778,2000,13.0,4.0
# From MPC119995
C/2016 M1 (PANSTARRS),e,90.9858,92.2131,209.9049,8434,0.0000013,0.99973762,0.0000,08/10.4097/2018,2000,g  5.0,4.0
# From MPC115881
C/2016 N4 (MASTER),e,72.6227,353.9943,55.9401,2780,0.0000067,0.99884969,0.0000,09/16.6592/2017,2000,g  8.5,4.0
# From MPC119995
C/2016 N6 (PANSTARRS),e,105.8410,298.9885,162.7159,1422,0.0000184,0.99812515,0.0000,07/17.9993/2018,2000,g  7.0,4.0
# From MPC102099
P/2016 P1 (PANSTARRS),e,24.4563,319.5648,270.0870,3.193717,0.1726869,0.28915624,340.4464,02/17.0/2021,2000,g 15.0,4.0
# From MPC102099
C/2016 P4 (PANSTARRS),e,29.8803,320.7247,356.2342,413.6052,0.0001172,0.98574140,0.0000,10/18.5750/2016,2000,g 10.5,4.0
# From MPC118093
C/2016 Q2 (PANSTARRS),h,05/11.8099/2021,109.3883,322.2963,84.5230,1.000327,7.081875,2000,6.0,4.0
# From MPC102955
C/2016 Q4 (Kowalski),e,7.2561,271.2901,99.4429,16.93442,0.0141432,0.58153901,15.7866,02/17.0/2021,2000,g  7.0,4.0
# From MPC119995
C/2016 R2 (PANSTARRS),e,58.2359,80.5605,33.1559,513.3567,0.0000847,0.99493118,0.0000,05/09.1091/2018,2000,g  7.0,4.0
# From MPC102099
C/2016 R3 (Borisov),e,53.0332,78.7515,118.1783,198.2940,0.0003530,0.99771300,0.0000,10/10.0780/2016,2000,g 18.0,4.0
# From MPC109144
P/2016 R4 (Gibbs),e,10.8734,168.2701,174.0281,5.331529,0.0800620,0.47628123,133.7775,02/17.0/2021,2000,g 12.5,4.0
# From MPC105543
P/2016 S1 (PANSTARRS),e,94.6755,227.5503,273.2784,8.278423,0.0413793,0.70998733,59.3381,02/17.0/2021,2000,g 12.0,4.0
# From MPC105238
C/2016 T1 (Matheny),e,129.8503,56.3294,137.4716,125.0013,0.0007052,0.98155634,0.0000,02/01.3727/2017,2000,g 14.5,4.0
# From MPC107685
C/2016 T2 (Matheny),e,81.3964,339.1806,92.2096,99.22808,0.0009971,0.98081100,0.0000,12/29.3496/2016,2000,g 14.5,4.0
# From MPC110082
C/2016 T3 (PANSTARRS),e,22.6822,271.7281,194.6331,131.1156,0.0006565,0.97980845,0.0000,09/06.4221/2017,2000,g 10.5,4.0
# From MPC103847
C/2016 U1 (NEOWISE),h,01/13.8273/2017,46.3062,61.5507,162.8193,1.000406,0.323383,2000,17.0,4.0
# From MPC106345
C/2016 VZ18 (PANSTARRS),e,23.9785,98.9204,36.4071,162.9981,0.0004736,0.99438942,0.0000,03/05.4228/2017,2000,g 19.5,4.0
# From MPC106345
P/2016 WM48 (Lemmon),e,117.4531,59.9040,36.0839,8.165301,0.0422421,0.78384256,61.4326,02/17.0/2021,2000,g 15.0,4.0
# From MPC119995
C/2016 X1 (Lemmon),e,26.4530,256.4064,224.4971,1276,0.0000216,0.99407476,0.0000,04/28.5089/2019,2000,g  6.0,4.0
# From MPC108594
C/2017 A1 (PANSTARRS),e,49.7923,121.0444,2.0100,76.07672,0.0014853,0.96989479,2.0392,02/17.0/2021,2000,g 13.0,4.0
# From MPC108594
C/2017 A3 (Elenin),e,98.5286,97.8962,303.9944,43.43966,0.0034425,0.91147256,5.0884,02/17.0/2021,2000,g  9.5,4.0
# From MPC114598
C/2017 AB5 (PANSTARRS),e,32.4419,42.6381,78.3276,2332,0.0000088,0.99604925,0.0000,02/15.3415/2018,2000,g  5.5,4.0
# From MPC119995
C/2017 B3 (LINEAR),h,02/02.5697/2019,54.1687,2.1793,284.7963,1.001587,3.923225,2000,6.0,4.0
# From MPC103847
P/2017 B4 (PANSTARRS),e,20.0584,121.4578,11.0197,4.410520,0.1064068,0.36495152,359.9130,01/05.0/2017,2000,g 14.5,4.0
# From MPC104793
C/2017 C1 (NEOWISE),e,65.7611,357.5512,110.0625,20.58019,0.0105567,0.92716932,15.7352,02/17.0/2021,2000,g 18.0,4.0
# From MPC107685
C/2017 C2 (PANSTARRS),e,118.5857,249.7705,138.5837,96.11684,0.0010459,0.97479781,0.0000,01/21.4643/2017,2000,g 14.0,4.0
# From MPC104793
P/2017 D1 (Fuls),e,20.7557,82.1803,8.0414,4.829868,0.0928541,0.43625461,157.7703,02/17.0/2021,2000,g 14.0,4.0
# From MPC112391
C/2017 D2 (Barros),e,31.2577,330.9527,334.5361,5035,0.0000028,0.99950530,0.0000,07/14.9032/2017,2000,g 11.0,4.0
# From MPC114598
C/2017 D3 (ATLAS),h,04/27.4099/2017,125.5861,186.6820,340.8595,1.002222,4.972358,2000,8.0,4.0
